[{"OBJECT_NAME":"OOV-CUBE (TUBSAT-30)","OBJECT_ID":"2024-128F","EPOCH":"2026-03-03T16:55:47.049024","MEAN_MOTION":15.02193642,"ECCENTRICITY":0.0055028,"INCLINATION":61.9935,"RA_OF_ASC_NODE":233.2348,"ARG_OF_PERICENTER":111.1965,"MEAN_ANOMALY":249.5017,"EPHEMERIS_TYPE":0,"CLASSIFICATION_TYPE":"U","NORAD_CAT_ID":60240,"ELEMENT_SET_NO":999,"REV_AT_EPOCH":9026,"BSTAR":0.00035541,"MEAN_MOTION_DOT":4.646e-5,"MEAN_MOTION_DDOT":0}]
